     2.11           N: GPS NAV DATA                         RINEX VERSION / TYPE
teqc  2016Apr1      IGN                 20190227 01:33:03UTCPGM / RUN BY / DATE
    18                                                      LEAP SECONDS
    9.3132D-09  0.0000D+00 -5.9605D-08  0.0000D+00          ION ALPHA
    9.0112D+04  0.0000D+00 -1.9661D+05  0.0000D+00          ION BETA
   -3.725290298462D-09-7.993605777301D-15   319488     2042 DELTA-UTC: A0,A1,T,W
                                                            END OF HEADER
28 19  2 26 14  0  0.0 7.653879001737D-04 7.958078640513D-13 0.000000000000D+00
    4.300000000000D+01 4.309375000000D+01 3.895519406877D-09-2.156852118851D+00
    2.363696694374D-06 1.924320438411D-02 5.139037966728D-06 5.153702779770D+03
    2.232000000000D+05 2.924352884293D-07 2.922173064329D+00 2.197921276093D-07
    9.833134669300D-01 2.909687500000D+02-1.471836561843D+00-7.668890868658D-09
   -8.286059433349D-11 1.000000000000D+00 2.042000000000D+03 0.000000000000D+00
    2.000000000000D+00 0.000000000000D+00-1.117587089539D-08 4.300000000000D+01
    2.160000000000D+05 4.000000000000D+00
11 19  2 26 14  0  0.0-6.540161557496D-04 6.252776074689D-12 0.000000000000D+00
    6.300000000000D+01-6.006250000000D+01 5.732381633847D-09 4.206771324911D-01
   -3.255903720856D-06 1.654166844673D-02 7.292255759239D-06 5.153690799713D+03
    2.232000000000D+05-1.154839992523D-07-1.795828610464D+00-2.086162567139D-07
    9.083214729953D-01 2.141875000000D+02 1.865632681421D+00-9.021447208059D-09
    7.393165097859D-11 1.000000000000D+00 2.042000000000D+03 0.000000000000D+00
    2.000000000000D+00 0.000000000000D+00-1.210719347000D-08 6.300000000000D+01
    2.160600000000D+05 4.000000000000D+00
18 19  2 26 14  0  0.0 2.978229895234D-05 3.637978807092D-12 0.000000000000D+00
    1.500000000000D+01-5.296875000000D+01 4.653050961107D-09 8.879535703275D-01
   -2.836808562279D-06 1.505259086844D-02 8.655712008476D-06 5.153734140396D+03
    2.232000000000D+05-2.197921276093D-07-1.403841675824D+00-9.313225746155D-09
    9.527858600640D-01 2.105312500000D+02 1.376665283658D+00-8.410707482584D-09
    1.942938074027D-10 1.000000000000D+00 2.042000000000D+03 0.000000000000D+00
    2.000000000000D+00 0.000000000000D+00-6.053596735001D-09 1.500000000000D+01
    2.160600000000D+05 4.000000000000D+00
 1 19  2 26 14  0  0.0-1.704790629447D-04-7.162270776462D-12 0.000000000000D+00
    9.300000000000D+01-4.465625000000D+01 4.164816338461D-09 1.120112441865D+00
   -2.369284629822D-06 8.417461998761D-03 8.478760719299D-06 5.153661520004D+03
    2.232000000000D+05-3.352761268616D-08-1.350655889039D+00 1.080334186554D-07
    9.742939566940D-01 2.235937500000D+02 6.831394728268D-01-7.996047353182D-09
    1.714357124141D-10 1.000000000000D+00 2.042000000000D+03 0.000000000000D+00
    2.000000000000D+00 0.000000000000D+00 5.587935447693D-09 9.300000000000D+01
    2.160000000000D+05
 6 19  2 26 14  0  0.0 2.672695554793D-04-8.412825991400D-12 0.000000000000D+00
    7.200000000000D+01-4.196875000000D+01 4.046954286176D-09 1.306869782475D+00
   -2.080574631691D-06 1.496810698882D-03 8.113682270050D-06 5.153804847717D+03
    2.232000000000D+05 2.980232238770D-08-1.358943877330D+00-6.891787052155D-08
    9.739597296521D-01 2.288125000000D+02-1.155760241527D+00-7.870684988479D-09
    2.582250418238D-10 1.000000000000D+00 2.042000000000D+03 0.000000000000D+00
    2.000000000000D+00 0.000000000000D+00 4.656612873077D-09 7.200000000000D+01
    2.187900000000D+05
26 19  2 26 14  0  0.0 1.349062658850D-04 1.023181539490D-11 0.000000000000D+00
    9.000000000000D+00 4.931250000000D+01 4.741268921450D-09-1.212769892830D+00
    2.531334757800D-06 3.682053065860D-03 4.731118679050D-06 5.153559783940D+03
    2.232000000000D+05-5.587935447690D-09 2.809179121010D+00-1.341104507450D-07
    9.527819160370D-01 2.853750000000D+02 1.165490054080D-01-8.352847929640D-09
   -3.857303529320D-11 1.000000000000D+00 2.042000000000D+03 0.000000000000D+00
    2.400000000000D+00 0.000000000000D+00 7.450580596920D-09 9.000000000000D+00
    2.160180000000D+05 4.000000000000D+00
 7 19  2 26 14  0  0.0 2.518761903050D-05-7.275957614180D-12 0.000000000000D+00
    1.800000000000D+01 5.293750000000D+01 4.725911138880D-09 5.009499052030D-01
    2.982094883920D-06 1.224871620070D-02 8.527189493180D-06 5.153609245300D+03
    2.232000000000D+05-5.587935447690D-08 1.800955066010D+00 1.713633537290D-07
    9.558560891630D-01 2.110625000000D+02-2.476018645880D+00-8.291773957100D-09
   -2.678683006470D-10 1.000000000000D+00 2.042000000000D+03 0.000000000000D+00
    2.400000000000D+00 0.000000000000D+00-1.117587089540D-08 1.800000000000D+01
    2.160180000000D+05 4.000000000000D+00
 3 19  2 26 14  0  0.0 1.845899969340D-04 1.477928890380D-12 0.000000000000D+00
    7.700000000000D+01-1.746875000000D+01 4.761626912300D-09 1.231622641000D-01
   -9.275972843170D-07 1.901996089150D-03 7.795169949530D-06 5.153569892880D+03
    2.232000000000D+05 3.539025783540D-08-3.079911129520D-01-1.676380634310D-08
    9.627386359630D-01 2.347812500000D+02 6.212812443430D-01-8.105337619850D-09
    2.353669468350D-10 1.000000000000D+00 2.042000000000D+03 0.000000000000D+00
    2.400000000000D+00 0.000000000000D+00 2.328306436540D-09 7.700000000000D+01
    2.160180000000D+05 4.000000000000D+00
16 19  2 26 14  0  0.0-2.177339047190D-05-2.501110429880D-12 0.000000000000D+00
    1.000000000000D+01 3.793750000000D+01 4.032310819070D-09-2.129344549830D+00
    1.884996891020D-06 1.064509782010D-02 4.934147000310D-06 5.153781759260D+03
    2.232000000000D+05 2.048909664150D-08 2.918154816040D+00-1.229345798490D-07
    9.843826727920D-01 2.979375000000D+02 5.445105512220D-01-7.926758752750D-09
    7.143154683920D-11 1.000000000000D+00 2.042000000000D+03 0.000000000000D+00
    2.400000000000D+00 0.000000000000D+00-1.071020960810D-08 1.000000000000D+01
    2.160180000000D+05 4.000000000000D+00
 9 19  2 26 14  0  0.0 4.531126469370D-04-5.456968210640D-12 0.000000000000D+00
    1.100000000000D+01-5.562500000000D+00 5.000922594210D-09-2.637490237460D+00
   -2.160668373110D-07 1.436223043130D-03 8.227303624150D-06 5.153725488660D+03
    2.232000000000D+05 1.303851604460D-08 7.242081066550D-01 2.048909664150D-08
    9.526546845890D-01 2.192187500000D+02 1.720082710470D+00-8.177483482150D-09
   -1.510777215650D-10 1.000000000000D+00 2.042000000000D+03 0.000000000000D+00
    2.400000000000D+00 0.000000000000D+00 1.396983861920D-09 1.100000000000D+01
    2.160180000000D+05 4.000000000000D+00
22 19  2 26 14  0  0.0-6.533609703180D-04-7.844391802790D-12 0.000000000000D+00
    7.700000000000D+01-1.828125000000D+01 5.515229731460D-09 2.527572486100D+00
   -1.095235347750D-06 7.210875046440D-03 7.303431630130D-06 5.153566070560D+03
    2.232000000000D+05 1.285225152970D-07-3.777112270400D-01-6.332993507390D-08
    9.270895972090D-01 2.220000000000D+02-1.413152163390D+00-8.371062974090D-09
    2.146517982520D-10 1.000000000000D+00 2.042000000000D+03 0.000000000000D+00
    2.400000000000D+00 0.000000000000D+00-1.816079020500D-08 7.700000000000D+01
    2.160180000000D+05 4.000000000000D+00
23 19  2 26 14  0  0.0-1.959186047320D-04 1.364242052660D-12 0.000000000000D+00
    5.600000000000D+01-8.156250000000D+00 5.208074080050D-09 1.879979374200D+00
   -5.085021257400D-07 1.283937611150D-02 8.536502718930D-06 5.153631782530D+03
    2.232000000000D+05-3.110617399220D-07 7.199537521640D-01-1.676380634310D-07
    9.434696875970D-01 2.116875000000D+02-2.294080850840D+00-8.307131739670D-09
   -1.785788670980D-10 1.000000000000D+00 2.042000000000D+03 0.000000000000D+00
    2.400000000000D+00 0.000000000000D+00-2.002343535420D-08 5.600000000000D+01
    2.160180000000D+05 4.000000000000D+00
31 19  2 26 14  0  0.0 5.592498928310D-05-2.728484105320D-12 0.000000000000D+00
    4.000000000000D+01 6.653125000000D+01 4.550546691390D-09 9.946179162290D-02
    3.362074494360D-06 9.261596249420D-03 8.776783943180D-06 5.153571187970D+03
    2.232000000000D+05 1.285225152970D-07 1.814644390700D+00-2.048909664150D-08
    9.604311065190D-01 2.086875000000D+02-1.168518689490D-02-8.169268854270D-09
   -1.739358165530D-10 1.000000000000D+00 2.042000000000D+03 0.000000000000D+00
    2.400000000000D+00 0.000000000000D+00-1.350417733190D-08 4.000000000000D+01
    2.160960000000D+05 4.000000000000D+00
27 19  2 26 14  0  0.0-7.525971159340D-05-7.617018127350D-12 0.000000000000D+00
    5.600000000000D+01-5.075000000000D+01 4.022667560250D-09-2.984487015200D+00
   -2.572312951090D-06 6.750235334040D-03 6.102025508880D-06 5.153637849810D+03
    2.232000000000D+05 3.725290298460D-09-2.406550554540D+00-1.676380634310D-08
    9.784906824530D-01 2.727187500000D+02 4.348710146950D-01-7.942830850790D-09
   -3.643008888800D-11 1.000000000000D+00 2.042000000000D+03 0.000000000000D+00
    2.400000000000D+00 0.000000000000D+00 1.396983861920D-09 5.600000000000D+01
    2.166120000000D+05 4.000000000000D+00
 8 19  2 26 14  0  0.0-1.341854222120D-04-1.364242052660D-12 0.000000000000D+00
    5.700000000000D+01-4.243750000000D+01 4.239462304910D-09-2.686982744190D+00
   -2.078711986540D-06 4.306188202460D-03 5.599111318590D-06 5.153704906460D+03
    2.232000000000D+05-3.725290298460D-09-2.417194863510D+00 5.774199962620D-08
    9.702308816680D-01 2.787187500000D+02-3.307973986970D-01-8.117480982810D-09
   -5.285934466100D-11 1.000000000000D+00 2.042000000000D+03 0.000000000000D+00
    2.400000000000D+00 0.000000000000D+00 5.122274160390D-09 5.700000000000D+01
    2.182080000000D+05 4.000000000000D+00
